RADFXSAT (FOX-1B)       
1 43017U 17073E   26068.59518419  .00011352  00000+0  51457-3 0  9993
2 43017  97.4852 297.8938 0154575 312.4525  46.3719 15.10873817450344
STARLINK-31459          
1 59233U 24049C   26068.21608523 -.00002737  00000+0 -89985-4 0  9993
2 59233  43.0004 146.2142 0000795 294.7089  65.3680 15.27579059112322
